{
    "week": 294,
    "satellites": [
        {
            "Name": "BEIDOU-2 IGSO-1 (C06)",
            "Line1": "1 36828U 10036A   24331.34433417 -.00000022  00000+0  00000+0 0  9992",
            "Line2": "2 36828  54.2571 168.0954 0042651 205.7122 282.8006  1.00284268 52535",
            "SatelliteNumber": "36828",
            "Classification": "U",
            "LaunchYear": "10",
            "LaunchNumber": "036",
            "PieceOfLaunch": "A",
            "EpochYear": "24",
            "EpochDay": 331.34433417,
            "FirstDerivativeMeanMotion": -2.2e-07,
            "SecondDerivativeMeanMotion": "00000+0",
            "BSTAR": "00000+0",
            "SetNumber": "999",
            "Inclination": 54.2571,
            "RAAN": 168.0954,
            "Eccentricity": 0.0042651,
            "ArgumentOfPerigee": 205.7122,
            "MeanAnomaly": 282.8006,
            "MeanMotion": 1.00284268,
            "RevolutionNumber": "5253"
        },
        {
            "Name": "BEIDOU-2 G4 (C04)",
            "Line1": "1 37210U 10057A   24330.90210465 -.00000093  00000+0  00000+0 0  9996",
            "Line2": "2 37210   2.2381  70.1172 0009492 180.4423 299.5297  1.00272990 51587",
            "SatelliteNumber": "37210",
            "Classification": "U",
            "LaunchYear": "10",
            "LaunchNumber": "057",
            "PieceOfLaunch": "A",
            "EpochYear": "24",
            "EpochDay": 330.90210465,
            "FirstDerivativeMeanMotion": -9.3e-07,
            "SecondDerivativeMeanMotion": "00000+0",
            "BSTAR": "00000+0",
            "SetNumber": "999",
            "Inclination": 2.2381,
            "RAAN": 70.1172,
            "Eccentricity": 0.0009492,
            "ArgumentOfPerigee": 180.4423,
            "MeanAnomaly": 299.5297,
            "MeanMotion": 1.0027299,
            "RevolutionNumber": "5158"
        },
        {
            "Name": "BEIDOU-2 IGSO-2 (C07)",
            "Line1": "1 37256U 10068A   24331.65620755 -.00000216  00000+0  00000+0 0  9995",
            "Line2": "2 37256  48.5826 278.8359 0037821 218.5325 269.8545  1.00251135 51099",
            "SatelliteNumber": "37256",
            "Classification": "U",
            "LaunchYear": "10",
            "LaunchNumber": "068",
            "PieceOfLaunch": "A",
            "EpochYear": "24",
            "EpochDay": 331.65620755,
            "FirstDerivativeMeanMotion": -2.16e-06,
            "SecondDerivativeMeanMotion": "00000+0",
            "BSTAR": "00000+0",
            "SetNumber": "999",
            "Inclination": 48.5826,
            "RAAN": 278.8359,
            "Eccentricity": 0.0037821,
            "ArgumentOfPerigee": 218.5325,
            "MeanAnomaly": 269.8545,
            "MeanMotion": 1.00251135,
            "RevolutionNumber": "5109"
        },
        {
            "Name": "BEIDOU-2 IGSO-3 (C08)",
            "Line1": "1 37384U 11013A   24330.66077770 -.00000202  00000+0  00000+0 0  9996",
            "Line2": "2 37384  61.5904  45.5604 0031705 181.3497 183.5227  1.00268622 49968",
            "SatelliteNumber": "37384",
            "Classification": "U",
            "LaunchYear": "11",
            "LaunchNumber": "013",
            "PieceOfLaunch": "A",
            "EpochYear": "24",
            "EpochDay": 330.6607777,
            "FirstDerivativeMeanMotion": -2.02e-06,
            "SecondDerivativeMeanMotion": "00000+0",
            "BSTAR": "00000+0",
            "SetNumber": "999",
            "Inclination": 61.5904,
            "RAAN": 45.5604,
            "Eccentricity": 0.0031705,
            "ArgumentOfPerigee": 181.3497,
            "MeanAnomaly": 183.5227,
            "MeanMotion": 1.00268622,
            "RevolutionNumber": "4996"
        },
        {
            "Name": "BEIDOU-2 IGSO-4 (C09)",
            "Line1": "1 37763U 11038A   24331.01855075  .00000052  00000+0  00000+0 0  9998",
            "Line2": "2 37763  54.5626 170.7472 0129693 228.5233 129.2168  1.00274383 48941",
            "SatelliteNumber": "37763",
            "Classification": "U",
            "LaunchYear": "11",
            "LaunchNumber": "038",
            "PieceOfLaunch": "A",
            "EpochYear": "24",
            "EpochDay": 331.01855075,
            "FirstDerivativeMeanMotion": 5.2e-07,
            "SecondDerivativeMeanMotion": "00000+0",
            "BSTAR": "00000+0",
            "SetNumber": "999",
            "Inclination": 54.5626,
            "RAAN": 170.7472,
            "Eccentricity": 0.0129693,
            "ArgumentOfPerigee": 228.5233,
            "MeanAnomaly": 129.2168,
            "MeanMotion": 1.00274383,
            "RevolutionNumber": "4894"
        },
        {
            "Name": "BEIDOU-2 IGSO-5 (C10)",
            "Line1": "1 37948U 11073A   24329.80935888 -.00000213  00000+0  00000+0 0  9997",
            "Line2": "2 37948  48.7211 278.5539 0100913 222.1479 308.6017  1.00256720 47421",
            "SatelliteNumber": "37948",
            "Classification": "U",
            "LaunchYear": "11",
            "LaunchNumber": "073",
            "PieceOfLaunch": "A",
            "EpochYear": "24",
            "EpochDay": 329.80935888,
            "FirstDerivativeMeanMotion": -2.13e-06,
            "SecondDerivativeMeanMotion": "00000+0",
            "BSTAR": "00000+0",
            "SetNumber": "999",
            "Inclination": 48.7211,
            "RAAN": 278.5539,
            "Eccentricity": 0.0100913,
            "ArgumentOfPerigee": 222.1479,
            "MeanAnomaly": 308.6017,
            "MeanMotion": 1.0025672,
            "RevolutionNumber": "4742"
        },
        {
            "Name": "BEIDOU-2 G5 (C05)",
            "Line1": "1 38091U 12008A   24331.09638375  .00000077  00000+0  00000+0 0  9998",
            "Line2": "2 38091   2.1588  70.9214 0011296 223.4981 224.5553  1.00269057 46789",
            "SatelliteNumber": "38091",
            "Classification": "U",
            "LaunchYear": "12",
            "LaunchNumber": "008",
            "PieceOfLaunch": "A",
            "EpochYear": "24",
            "EpochDay": 331.09638375,
            "FirstDerivativeMeanMotion": 7.7e-07,
            "SecondDerivativeMeanMotion": "00000+0",
            "BSTAR": "00000+0",
            "SetNumber": "999",
            "Inclination": 2.1588,
            "RAAN": 70.9214,
            "Eccentricity": 0.0011296,
            "ArgumentOfPerigee": 223.4981,
            "MeanAnomaly": 224.5553,
            "MeanMotion": 1.00269057,
            "RevolutionNumber": "4678"
        },
        {
            "Name": "BEIDOU-2 M3 (C11)",
            "Line1": "1 38250U 12018A   24330.55534242 -.00000074  00000+0  00000+0 0  9992",
            "Line2": "2 38250  56.2249 323.9621 0025459 267.1501  92.5713  1.86233718 85707",
            "SatelliteNumber": "38250",
            "Classification": "U",
            "LaunchYear": "12",
            "LaunchNumber": "018",
            "PieceOfLaunch": "A",
            "EpochYear": "24",
            "EpochDay": 330.55534242,
            "FirstDerivativeMeanMotion": -7.4e-07,
            "SecondDerivativeMeanMotion": "00000+0",
            "BSTAR": "00000+0",
            "SetNumber": "999",
            "Inclination": 56.2249,
            "RAAN": 323.9621,
            "Eccentricity": 0.0025459,
            "ArgumentOfPerigee": 267.1501,
            "MeanAnomaly": 92.5713,
            "MeanMotion": 1.86233718,
            "RevolutionNumber": "8570"
        },
        {
            "Name": "BEIDOU-2 M4 (C12)",
            "Line1": "1 38251U 12018B   24330.48583207 -.00000074  00000+0  00000+0 0  9990",
            "Line2": "2 38251  56.1301 323.2237 0016368 269.5248  90.2997  1.86232158 85701",
            "SatelliteNumber": "38251",
            "Classification": "U",
            "LaunchYear": "12",
            "LaunchNumber": "018",
            "PieceOfLaunch": "B",
            "EpochYear": "24",
            "EpochDay": 330.48583207,
            "FirstDerivativeMeanMotion": -7.4e-07,
            "SecondDerivativeMeanMotion": "00000+0",
            "BSTAR": "00000+0",
            "SetNumber": "999",
            "Inclination": 56.1301,
            "RAAN": 323.2237,
            "Eccentricity": 0.0016368,
            "ArgumentOfPerigee": 269.5248,
            "MeanAnomaly": 90.2997,
            "MeanMotion": 1.86232158,
            "RevolutionNumber": "8570"
        },
        {
            "Name": "BEIDOU-2 M6 (C14)",
            "Line1": "1 38775U 12050B   24331.26938990 -.00000035  00000+0  00000+0 0  9994",
            "Line2": "2 38775  56.0482  81.7526 0010701 341.0512  18.8917  1.86231030 83088",
            "SatelliteNumber": "38775",
            "Classification": "U",
            "LaunchYear": "12",
            "LaunchNumber": "050",
            "PieceOfLaunch": "B",
            "EpochYear": "24",
            "EpochDay": 331.2693899,
            "FirstDerivativeMeanMotion": -3.5e-07,
            "SecondDerivativeMeanMotion": "00000+0",
            "BSTAR": "00000+0",
            "SetNumber": "999",
            "Inclination": 56.0482,
            "RAAN": 81.7526,
            "Eccentricity": 0.0010701,
            "ArgumentOfPerigee": 341.0512,
            "MeanAnomaly": 18.8917,
            "MeanMotion": 1.8623103,
            "RevolutionNumber": "8308"
        }
    ]
}